QIANFAN-60              
1 62790U 25016F   26004.29544503  .00000219  00000+0  32043-3 0  9998
2 62790  88.9758 100.7455 0013997 276.7446  83.2113 13.50991695 50278
QIANFAN-61              
1 62791U 25016G   26004.25423888  .00000094  00000+0  12706-3 0  9992
2 62791  88.9825 100.9280 0012947 276.1097  83.8579 13.50981864 50282
QIANFAN-62              
1 62792U 25016H   26004.25839717  .00000212  00000+0  30990-3 0  9992
2 62792  88.9772 100.7839 0014317 276.6949  83.2573 13.50984663 50273
QIANFAN-63              
1 62793U 25016J   26004.28304512  .00000208  00000+0  30419-3 0  9997
2 62793  88.9778 100.7343 0014348 282.6256  77.3291 13.50982830 50312
QIANFAN-64              
1 62794U 25016K   26004.25012693  .00000206  00000+0  30003-3 0  9998
2 62794  88.9765 100.7088 0012332 274.5553  85.4189 13.50986276 50309
QIANFAN-65              
1 62795U 25016L   26004.24602710  .00000203  00000+0  29527-3 0  9999
2 62795  88.9761 100.7344 0012156 276.4570  83.5197 13.50979956 50287
QIANFAN-66              
1 62796U 25016M   26004.27483905  .00000208  00000+0  30319-3 0  9992
2 62796  88.9780 100.7060 0013301 271.5177  88.4450 13.50984926 50331
QIANFAN-67              
1 62797U 25016N   26004.27901927  .00000211  00000+0  30815-3 0  9997
2 62797  88.9771 100.7289 0013219 279.3423  80.6234 13.50989080 50300
QIANFAN-68              
1 62798U 25016P   26004.27068764  .00000195  00000+0  28327-3 0  9997
2 62798  88.9774 100.7758 0013277 277.3573  82.6069 13.50980987 50285
QIANFAN-69              
1 62799U 25016Q   26004.28714186  .00000228  00000+0  33526-3 0  9999
2 62799  88.9753 100.6387 0014026 278.6660  81.2902 13.50981433 50327
QIANFAN-70              
1 62800U 25016R   26004.30370158  .00000203  00000+0  29641-3 0  9998
2 62800  88.9774 100.7803 0013720 267.7201  92.2379 13.50985191 50287
QIANFAN-71              
1 62801U 25016S   26004.29950706  .00000205  00000+0  29887-3 0  9994
2 62801  88.9768 100.7588 0013920 282.6351  77.3243 13.50984650 50288
QIANFAN-72              
1 62802U 25016T   26004.31595701  .00000200  00000+0  29152-3 0  9998
2 62802  88.9759 100.7682 0017175 290.6937  69.2372 13.50984428 50274
QIANFAN-73              
1 63159U 25046A   26004.26906488  .00000243  00000+0  35699-3 0  9999
2 63159  88.9782 317.6924 0016932  60.9188 299.3657 13.50984599 50451
QIANFAN-74              
1 63160U 25046B   26004.25248697  .00000225  00000+0  33033-3 0  9991
2 63160  88.9783 317.5830 0001968  70.9481 289.1883 13.50981557 50515
QIANFAN-75              
1 63161U 25046C   26004.23970980  .00000254  00000+0  37462-3 0  9999
2 63161  88.9784 317.8182 0018122  63.3575 296.9430 13.50987718 50384
QIANFAN-76              
1 63162U 25046D   26004.23636126  .00000236  00000+0  34642-3 0  9998
2 63162  88.9783 317.7991 0015682  64.1495 296.1271 13.50986936 50396
QIANFAN-77              
1 63163U 25046E   26004.26261342  .00000658  00000+0  46942-3 0  9990
2 63163  88.9784 315.6188 0015883  17.9938 342.1798 13.96110839 51594
QIANFAN-78              
1 63164U 25046F   26004.27726342  .00000246  00000+0  36189-3 0  9993
2 63164  88.9782 317.6586 0017066  65.8863 294.4071 13.50985502 50477
QIANFAN-79              
1 63165U 25046G   26004.30589506  .00000253  00000+0  37313-3 0  9995
2 63165  88.9786 317.7640 0016749  64.3159 295.9720 13.50987348 50425
QIANFAN-80              
1 63166U 25046H   26004.24838472  .00000252  00000+0  37108-3 0  9999
2 63166  88.9784 317.4763 0015734  68.2744 292.0081 13.50985366 50575
QIANFAN-81              
1 63167U 25046J   26004.22634380  .00000261  00000+0  38439-3 0  9998
2 63167  88.9784 317.5464 0016679  58.0777 302.1993 13.51011449 50520
QIANFAN-82              
1 63168U 25046K   26004.26084604  .00000260  00000+0  38394-3 0  9990
2 63168  88.9783 317.5868 0014874  65.0692 295.2003 13.50984317 50512
QIANFAN-83              
1 63169U 25046L   26004.25317429  .00000309  00000+0  38529-3 0  9998
2 63169  88.9784 317.3198 0016029  51.1588 309.0997 13.61984638 50662
QIANFAN-84              
1 63170U 25046M   26004.28847446  .00000246  00000+0  36237-3 0  9994
2 63170  88.9783 317.7165 0017815  61.6515 298.6430 13.50994413 50442
QIANFAN-85              
1 63171U 25046N   26004.28539396  .00000255  00000+0  37675-3 0  9994
2 63171  88.9783 317.5885 0015219  63.9416 296.3300 13.50985415 50512
QIANFAN-86              
1 63172U 25046P   26004.29372844  .00000259  00000+0  38223-3 0  9993
2 63172  88.9786 317.4504 0013126  67.8204 292.4338 13.50984978 50595
QIANFAN-87              
1 63173U 25046Q   26004.26509539  .00000266  00000+0  39269-3 0  9993
2 63173  88.9781 317.5642 0013748  63.8212 296.4351 13.50982494 50523
QIANFAN-88              
1 63174U 25046R   26004.28131874  .00000245  00000+0  36064-3 0  9996
2 63174  88.9784 317.5175 0014186  70.5890 289.6793 13.50989066 50551
QIANFAN-89              
1 63175U 25046S   26004.24419068  .00000249  00000+0  36724-3 0  9994
2 63175  88.9784 317.7104 0018499  62.0114 298.2907 13.50985152 50445
QIANFAN-90              
1 63176U 25046T   26004.27292491  .00000247  00000+0  36340-3 0  9999
2 63176  88.9784 317.6799 0015424  60.7556 299.5135 13.50985151 50463
QIANFAN-91              
1 66033U 25233A   26004.23707126  .00000163  00000+0  21730-3 0  9998
2 66033  88.9935  59.8162 0014868 338.1157  21.9360 13.55369801 11046
QIANFAN-92              
1 66034U 25233B   26004.23183849  .00000048  00000+0  57174-4 0  9993
2 66034  88.9917  59.8124 0014583 338.2726  21.7804 13.50256781 11040
QIANFAN-93              
1 66035U 25233C   26004.24704492  .00000069  00000+0  86016-4 0  9998
2 66035  88.9943  59.8201 0013251 337.9835  22.0746 13.52899037 11042
QIANFAN-94              
1 66036U 25233D   26004.23540718  .00000186  00000+0  20213-3 0  9993
2 66036  88.9941  59.7829 0014332 335.7158  24.3326 13.68549051 11067
QIANFAN-95              
1 66037U 25233E   26004.25561483  .00000344  00000+0  19746-3 0  9993
2 66037  88.9939  59.5291 0013131 339.2177  20.8470 14.07045364 11201
QIANFAN-96              
1 66038U 25233F   26003.75156695  .00000047  00000+0  51625-4 0  9996
2 66038  88.9934  59.8750 0014365 343.9591  16.1105 13.54232979 10979
QIANFAN-97              
1 66039U 25233G   26004.27264046  .00000143  00000+0  18124-3 0  9998
2 66039  88.9939  59.8055 0014500 346.2275  13.8482 13.57813847 11053
QIANFAN-98              
1 66040U 25233H   26004.29286957  .00000227  00000+0  19692-3 0  9991
2 66040  88.9931  59.6616 0013639 337.6542  22.4031 13.82583975 11130
QIANFAN-99              
1 66041U 25233J   26004.22427865  .00000159  00000+0  20388-3 0  9998
2 66041  88.9938  59.8165 0014086 339.0714  20.9863 13.57810009 11042
QIANFAN-100             
1 66042U 25233K   26003.70031969 -.01843034  00000+0 -27020+1 0  9994
2 66042  88.9946  59.7787 0015785 339.0791  20.9717 13.58811379 11021
QIANFAN-101             
1 66043U 25233L   26004.25048372  .00000346  00000+0  13706-3 0  9999
2 66043  88.9937  59.4350 0013315 329.0148  31.0259 14.26689794 11256
QIANFAN-102             
1 66044U 25233M   26004.28782239  .00000181  00000+0  20262-3 0  9992
2 66044  88.9936  59.7714 0013825 339.9979  20.0638 13.66802719 11077
QIANFAN-103             
1 66045U 25233N   26004.22458662  .00000164  00000+0  21062-3 0  9997
2 66045  88.9939  59.8167 0013647 341.9006  18.1661 13.57797044 11045
QIANFAN-104             
1 66046U 25233P   26004.26429908  .00000198  00000+0  20581-3 0  9995
2 66046  88.9940  59.7698 0013265 343.8337  16.2401 13.71548056 11077
QIANFAN-105             
1 66047U 25233Q   26004.26639398  .00000271  00000+0  20714-3 0  9992
2 66047  88.9942  59.6794 0014321 338.8204  21.2375 13.90525554 11128
QIANFAN-106             
1 66048U 25233R   26004.23664305  .00000150  00000+0  19124-3 0  9995
2 66048  88.9927  59.7969 0014039 336.2594  23.7912 13.57813803 11053
QIANFAN-107             
1 66049U 25233S   26004.24192714  .00000155  00000+0  19907-3 0  9991
2 66049  88.9941  59.8019 0013787 340.9257  19.1379 13.57810597 11057
QIANFAN-108             
1 66050U 25233T   26003.56068056 -.01772556  00000+0 -27664+1 0  9998
2 66050  88.9934  59.8662 0010718 337.3930  22.6750 13.54724378 10963
